[{"OBJECT_NAME":"SL-8 R/B","OBJECT_ID":"1988-053B","EPOCH":"2026-04-27T19:27:45.425088","MEAN_MOTION":14.3894286,"ECCENTRICITY":0.0020524,"INCLINATION":74.0497,"RA_OF_ASC_NODE":21.9191,"ARG_OF_PERICENTER":193.1595,"MEAN_ANOMALY":232.7091,"EPHEMERIS_TYPE":0,"CLASSIFICATION_TYPE":"U","NORAD_CAT_ID":19257,"ELEMENT_SET_NO":999,"REV_AT_EPOCH":98366,"BSTAR":7.4717e-5,"MEAN_MOTION_DOT":2.05e-6,"MEAN_MOTION_DDOT":0},{"OBJECT_NAME":"COSMOS 1975","OBJECT_ID":"1988-093A","EPOCH":"2026-04-27T19:51:30.917088","MEAN_MOTION":15.28676291,"ECCENTRICITY":0.0011498,"INCLINATION":82.5186,"RA_OF_ASC_NODE":68.3224,"ARG_OF_PERICENTER":8.4075,"MEAN_ANOMALY":351.7354,"EPHEMERIS_TYPE":0,"CLASSIFICATION_TYPE":"U","NORAD_CAT_ID":19573,"ELEMENT_SET_NO":999,"REV_AT_EPOCH":2691,"BSTAR":0.00027392,"MEAN_MOTION_DOT":7.683e-5,"MEAN_MOTION_DDOT":0},{"OBJECT_NAME":"SL-14 R/B","OBJECT_ID":"1988-093B","EPOCH":"2026-04-27T18:17:24.487872","MEAN_MOTION":14.85704728,"ECCENTRICITY":0.0019368,"INCLINATION":82.5331,"RA_OF_ASC_NODE":355.9899,"ARG_OF_PERICENTER":233.3354,"MEAN_ANOMALY":193.9765,"EPHEMERIS_TYPE":0,"CLASSIFICATION_TYPE":"U","NORAD_CAT_ID":19574,"ELEMENT_SET_NO":999,"REV_AT_EPOCH":830,"BSTAR":4.1014e-5,"MEAN_MOTION_DOT":3.81e-6,"MEAN_MOTION_DDOT":0},{"OBJECT_NAME":"SL-16 R/B","OBJECT_ID":"1988-102B","EPOCH":"2026-04-27T20:30:53.295264","MEAN_MOTION":14.16157481,"ECCENTRICITY":0.0016249,"INCLINATION":71.0006,"RA_OF_ASC_NODE":48.0447,"ARG_OF_PERICENTER":292.2002,"MEAN_ANOMALY":67.7397,"EPHEMERIS_TYPE":0,"CLASSIFICATION_TYPE":"U","NORAD_CAT_ID":19650,"ELEMENT_SET_NO":999,"REV_AT_EPOCH":93385,"BSTAR":4.6594e-5,"MEAN_MOTION_DOT":4.4e-7,"MEAN_MOTION_DDOT":0},{"OBJECT_NAME":"INTERCOSMOS 24","OBJECT_ID":"1989-080A","EPOCH":"2026-04-27T19:33:13.333824","MEAN_MOTION":12.59602953,"ECCENTRICITY":0.118756,"INCLINATION":82.6044,"RA_OF_ASC_NODE":72.4113,"ARG_OF_PERICENTER":178.7435,"MEAN_ANOMALY":181.7157,"EPHEMERIS_TYPE":0,"CLASSIFICATION_TYPE":"U","NORAD_CAT_ID":20261,"ELEMENT_SET_NO":999,"REV_AT_EPOCH":67298,"BSTAR":0.00013276,"MEAN_MOTION_DOT":4.68e-6,"MEAN_MOTION_DDOT":0},{"OBJECT_NAME":"SL-14 R/B","OBJECT_ID":"1989-080C","EPOCH":"2026-04-27T18:19:47.599104","MEAN_MOTION":12.50530372,"ECCENTRICITY":0.1230974,"INCLINATION":82.5905,"RA_OF_ASC_NODE":141.6929,"ARG_OF_PERICENTER":72.6421,"MEAN_ANOMALY":300.5327,"EPHEMERIS_TYPE":0,"CLASSIFICATION_TYPE":"U","NORAD_CAT_ID":20262,"ELEMENT_SET_NO":999,"REV_AT_EPOCH":66628,"BSTAR":0.00010156,"MEAN_MOTION_DOT":3.69e-6,"MEAN_MOTION_DDOT":0},{"OBJECT_NAME":"DELTA 1 R/B","OBJECT_ID":"1989-089B","EPOCH":"2026-04-27T19:11:30.903936","MEAN_MOTION":14.50698288,"ECCENTRICITY":0.0068178,"INCLINATION":97.0665,"RA_OF_ASC_NODE":317.4124,"ARG_OF_PERICENTER":328.5042,"MEAN_ANOMALY":31.2082,"EPHEMERIS_TYPE":0,"CLASSIFICATION_TYPE":"U","NORAD_CAT_ID":20323,"ELEMENT_SET_NO":999,"REV_AT_EPOCH":90285,"BSTAR":7.5314e-5,"MEAN_MOTION_DOT":2.69e-6,"MEAN_MOTION_DDOT":0},{"OBJECT_NAME":"ARIANE 40 R/B","OBJECT_ID":"1990-005H","EPOCH":"2026-04-27T17:37:58.917216","MEAN_MOTION":14.39900071,"ECCENTRICITY":0.0011152,"INCLINATION":98.2995,"RA_OF_ASC_NODE":176.9111,"ARG_OF_PERICENTER":61.8087,"MEAN_ANOMALY":298.4227,"EPHEMERIS_TYPE":0,"CLASSIFICATION_TYPE":"U","NORAD_CAT_ID":20443,"ELEMENT_SET_NO":999,"REV_AT_EPOCH":89986,"BSTAR":8.83e-5,"MEAN_MOTION_DOT":2.36e-6,"MEAN_MOTION_DDOT":0},{"OBJECT_NAME":"DELTA 2 R/B(1)","OBJECT_ID":"1990-008B","EPOCH":"2026-04-27T13:09:56.962080","MEAN_MOTION":15.6218951,"ECCENTRICITY":0.0073541,"INCLINATION":35.6015,"RA_OF_ASC_NODE":212.6339,"ARG_OF_PERICENTER":357.1641,"MEAN_ANOMALY":2.8673,"EPHEMERIS_TYPE":0,"CLASSIFICATION_TYPE":"U","NORAD_CAT_ID":20453,"ELEMENT_SET_NO":999,"REV_AT_EPOCH":93376,"BSTAR":0.00062614,"MEAN_MOTION_DOT":0.0006585,"MEAN_MOTION_DDOT":0},{"OBJECT_NAME":"COSMOS 2058","OBJECT_ID":"1990-010A","EPOCH":"2026-04-27T18:26:08.289600","MEAN_MOTION":15.11710293,"ECCENTRICITY":0.0010039,"INCLINATION":82.4694,"RA_OF_ASC_NODE":359.0723,"ARG_OF_PERICENTER":153.7452,"MEAN_ANOMALY":206.4289,"EPHEMERIS_TYPE":0,"CLASSIFICATION_TYPE":"U","NORAD_CAT_ID":20465,"ELEMENT_SET_NO":999,"REV_AT_EPOCH":94965,"BSTAR":0.00018574,"MEAN_MOTION_DOT":3.195e-5,"MEAN_MOTION_DDOT":0},{"OBJECT_NAME":"SL-14 R/B","OBJECT_ID":"1990-010B","EPOCH":"2026-04-27T18:53:46.290912","MEAN_MOTION":14.83613941,"ECCENTRICITY":0.0020906,"INCLINATION":82.5042,"RA_OF_ASC_NODE":221.2691,"ARG_OF_PERICENTER":135.2432,"MEAN_ANOMALY":225.0474,"EPHEMERIS_TYPE":0,"CLASSIFICATION_TYPE":"U","NORAD_CAT_ID":20466,"ELEMENT_SET_NO":999,"REV_AT_EPOCH":93576,"BSTAR":5.2513e-5,"MEAN_MOTION_DOT":4.59e-6,"MEAN_MOTION_DDOT":0},{"OBJECT_NAME":"SL-14 R/B","OBJECT_ID":"1990-018B","EPOCH":"2026-04-27T15:35:32.377056","MEAN_MOTION":14.82185664,"ECCENTRICITY":0.0014776,"INCLINATION":82.5228,"RA_OF_ASC_NODE":177.3432,"ARG_OF_PERICENTER":292.6917,"MEAN_ANOMALY":67.2735,"EPHEMERIS_TYPE":0,"CLASSIFICATION_TYPE":"U","NORAD_CAT_ID":20511,"ELEMENT_SET_NO":999,"REV_AT_EPOCH":92983,"BSTAR":3.8112e-5,"MEAN_MOTION_DOT":3.27e-6,"MEAN_MOTION_DDOT":0},{"OBJECT_NAME":"HST","OBJECT_ID":"1990-037B","EPOCH":"2026-04-27T13:00:21.055104","MEAN_MOTION":15.30173403,"ECCENTRICITY":0.000166,"INCLINATION":28.4746,"RA_OF_ASC_NODE":66.5553,"ARG_OF_PERICENTER":305.7628,"MEAN_ANOMALY":54.2813,"EPHEMERIS_TYPE":0,"CLASSIFICATION_TYPE":"U","NORAD_CAT_ID":20580,"ELEMENT_SET_NO":999,"REV_AT_EPOCH":78080,"BSTAR":0.00023515,"MEAN_MOTION_DOT":7.298e-5,"MEAN_MOTION_DDOT":0},{"OBJECT_NAME":"SL-16 R/B","OBJECT_ID":"1990-046B","EPOCH":"2026-04-27T09:41:26.291328","MEAN_MOTION":14.15015844,"ECCENTRICITY":0.0016001,"INCLINATION":70.999,"RA_OF_ASC_NODE":195.6027,"ARG_OF_PERICENTER":234.8712,"MEAN_ANOMALY":125.0911,"EPHEMERIS_TYPE":0,"CLASSIFICATION_TYPE":"U","NORAD_CAT_ID":20625,"ELEMENT_SET_NO":999,"REV_AT_EPOCH":85528,"BSTAR":0.00010954,"MEAN_MOTION_DOT":1.65e-6,"MEAN_MOTION_DDOT":0},{"OBJECT_NAME":"COSMOS 2084","OBJECT_ID":"1990-055A","EPOCH":"2026-04-27T09:34:52.759200","MEAN_MOTION":15.05909823,"ECCENTRICITY":0.000948,"INCLINATION":62.7881,"RA_OF_ASC_NODE":169.4087,"ARG_OF_PERICENTER":211.3394,"MEAN_ANOMALY":148.7143,"EPHEMERIS_TYPE":0,"CLASSIFICATION_TYPE":"U","NORAD_CAT_ID":20663,"ELEMENT_SET_NO":999,"REV_AT_EPOCH":94365,"BSTAR":0.00014459,"MEAN_MOTION_DOT":1.912e-5,"MEAN_MOTION_DDOT":0},{"OBJECT_NAME":"SL-6 R/B(2)","OBJECT_ID":"1990-055D","EPOCH":"2026-04-27T15:34:20.069760","MEAN_MOTION":15.03806881,"ECCENTRICITY":0.0032729,"INCLINATION":62.7821,"RA_OF_ASC_NODE":87.3258,"ARG_OF_PERICENTER":357.2599,"MEAN_ANOMALY":2.8316,"EPHEMERIS_TYPE":0,"CLASSIFICATION_TYPE":"U","NORAD_CAT_ID":20666,"ELEMENT_SET_NO":999,"REV_AT_EPOCH":94555,"BSTAR":0.00020669,"MEAN_MOTION_DOT":2.684e-5,"MEAN_MOTION_DDOT":0},{"OBJECT_NAME":"SL-8 R/B","OBJECT_ID":"1990-078B","EPOCH":"2026-04-27T17:47:23.557632","MEAN_MOTION":14.90467464,"ECCENTRICITY":0.0356064,"INCLINATION":82.9058,"RA_OF_ASC_NODE":207.1528,"ARG_OF_PERICENTER":208.2846,"MEAN_ANOMALY":149.8638,"EPHEMERIS_TYPE":0,"CLASSIFICATION_TYPE":"U","NORAD_CAT_ID":20775,"ELEMENT_SET_NO":999,"REV_AT_EPOCH":81660,"BSTAR":0.00065582,"MEAN_MOTION_DOT":0.00022461,"MEAN_MOTION_DDOT":0}]
