SL-8 R/B                
1 19257U 88053B   26117.81094242  .00000205  00000+0  74717-4 0  9991
2 19257  74.0497  21.9191 0020524 193.1595 232.7091 14.38942860983667
COSMOS 1975             
1 19573U 88093A   26117.82744117  .00007683  00000+0  27392-3 0  9993
2 19573  82.5186  68.3224 0011498   8.4075 351.7354 15.28676291 26912
SL-14 R/B               
1 19574U 88093B   26117.76208898  .00000381  00000+0  41014-4 0  9994
2 19574  82.5331 355.9899 0019368 233.3354 193.9765 14.85704728  8305
SL-16 R/B               
1 19650U 88102B   26117.85478351  .00000044  00000+0  46594-4 0  9997
2 19650  71.0006  48.0447 0016249 292.2002  67.7397 14.16157481933858
INTERCOSMOS 24          
1 20261U 89080A   26117.81473766  .00000468  00000+0  13276-3 0  9994
2 20261  82.6044  72.4113 1187560 178.7435 181.7157 12.59602953672982
SL-14 R/B               
1 20262U 89080C   26117.76374536  .00000369  00000+0  10156-3 0  9998
2 20262  82.5905 141.6929 1230974  72.6421 300.5327 12.50530372666289
DELTA 1 R/B             
1 20323U 89089B   26117.79966324  .00000269  00000+0  75314-4 0  9997
2 20323  97.0665 317.4124 0068178 328.5042  31.2082 14.50698288902852
ARIANE 40 R/B           
1 20443U 90005H   26117.73470969  .00000236  00000+0  88300-4 0  9992
2 20443  98.2995 176.9111 0011152  61.8087 298.4227 14.39900071899861
DELTA 2 R/B(1)          
1 20453U 90008B   26117.54857595  .00065850  00000+0  62614-3 0  9991
2 20453  35.6015 212.6339 0073541 357.1641   2.8673 15.62189510933761
COSMOS 2058             
1 20465U 90010A   26117.76815150  .00003195  00000+0  18574-3 0  9992
2 20465  82.4694 359.0723 0010039 153.7452 206.4289 15.11710293949655
SL-14 R/B               
1 20466U 90010B   26117.78734133  .00000459  00000+0  52513-4 0  9998
2 20466  82.5042 221.2691 0020906 135.2432 225.0474 14.83613941935765
SL-14 R/B               
1 20511U 90018B   26117.64968029  .00000327  00000+0  38112-4 0  9998
2 20511  82.5228 177.3432 0014776 292.6917  67.2735 14.82185664929832
HST                     
1 20580U 90037B   26117.54191036  .00007298  00000+0  23515-3 0  9994
2 20580  28.4746  66.5553 0001660 305.7628  54.2813 15.30173403780805
SL-16 R/B               
1 20625U 90046B   26117.40377652  .00000165  00000+0  10954-3 0  9998
2 20625  70.9990 195.6027 0016001 234.8712 125.0911 14.15015844855286
COSMOS 2084             
1 20663U 90055A   26117.39922175  .00001912  00000+0  14459-3 0  9999
2 20663  62.7881 169.4087 0009480 211.3394 148.7143 15.05909823943657
SL-6 R/B(2)             
1 20666U 90055D   26117.64884340  .00002684  00000+0  20669-3 0  9998
2 20666  62.7821  87.3258 0032729 357.2599   2.8316 15.03806881945552
SL-8 R/B                
1 20775U 90078B   26117.74124488  .00022461  00000+0  65582-3 0  9993
2 20775  82.9058 207.1528 0356064 208.2846 149.8638 14.90467464816609
